{
  "type": "FeatureCollection",
  "features": [
    {
      "type": "Feature",
      "properties": {
        "norad_id": 39773,
        "name": "EUTELSAT 3B",
        "group": "eutelsat",
        "lat": 0.024557836547678204,
        "lon": 154.36877254845675,
        "alt_km": 35781.90123767051,
        "timestamp": "2025-12-24T03:53:29.313795+00:00",
        "meta_object_name": "EUTELSAT 3B",
        "meta_object_id": "2014-030A",
        "meta_epoch": "2025-12-23T18:16:59.686752",
        "meta_mean_motion": 1.00272589,
        "meta_eccentricity": 0.0004296,
        "meta_inclination": 0.0616,
        "meta_ra_of_asc_node": 346.5658,
        "meta_arg_of_pericenter": 245.0173,
        "meta_mean_anomaly": 138.3211,
        "meta_ephemeris_type": 0,
        "meta_classification_type": "U",
        "meta_norad_cat_id": 39773,
        "meta_element_set_no": 999,
        "meta_rev_at_epoch": 4230,
        "meta_bstar": 0,
        "meta_mean_motion_dot": 4.1e-07,
        "meta_mean_motion_ddot": 0,
        "tle_line1": "1 39773U 14030A   25357.76180193  .00000041  00000+0  00000+0 0  9997",
        "tle_line2": "2 39773   0.0616 346.5658 0004296 245.0173 138.3211  1.00272589 42306"
      },
      "geometry": {
        "type": "Point",
        "coordinates": [
          154.36877254845675,
          0.024557836547678204
        ]
      }
    },
    {
      "type": "Feature",
      "properties": {
        "norad_id": 40425,
        "name": "EUTELSAT 115 WEST B",
        "group": "eutelsat",
        "lat": -0.005345007678051825,
        "lon": 36.386560995364526,
        "alt_km": 35786.14379195385,
        "timestamp": "2025-12-24T03:53:29.313820+00:00",
        "meta_object_name": "EUTELSAT 115 WEST B",
        "meta_object_id": "2015-010B",
        "meta_epoch": "2025-12-23T12:35:11.984928",
        "meta_mean_motion": 1.00271081,
        "meta_eccentricity": 1.67e-05,
        "meta_inclination": 0.0089,
        "meta_ra_of_asc_node": 154.9718,
        "meta_arg_of_pericenter": 161.1699,
        "meta_mean_anomaly": 210.0501,
        "meta_ephemeris_type": 0,
        "meta_classification_type": "U",
        "meta_norad_cat_id": 40425,
        "meta_element_set_no": 999,
        "meta_rev_at_epoch": 3963,
        "meta_bstar": 0,
        "meta_mean_motion_dot": -4e-08,
        "meta_mean_motion_ddot": 0,
        "tle_line1": "1 40425U 15010B   25357.52444427 -.00000004  00000+0  00000+0 0  9999",
        "tle_line2": "2 40425   0.0089 154.9718 0000167 161.1699 210.0501  1.00271081 39636"
      },
      "geometry": {
        "type": "Point",
        "coordinates": [
          36.386560995364526,
          -0.005345007678051825
        ]
      }
    },
    {
      "type": "Feature",
      "properties": {
        "norad_id": 40875,
        "name": "EUTELSAT 8 WEST B",
        "group": "eutelsat",
        "lat": 0.05985475022812519,
        "lon": 143.26807816929394,
        "alt_km": 35797.81143852964,
        "timestamp": "2025-12-24T03:53:29.313834+00:00",
        "meta_object_name": "EUTELSAT 8 WEST B",
        "meta_object_id": "2015-039B",
        "meta_epoch": "2025-12-23T18:13:52.487328",
        "meta_mean_motion": 1.00271237,
        "meta_eccentricity": 0.0004241,
        "meta_inclination": 0.0639,
        "meta_ra_of_asc_node": 5.8172,
        "meta_arg_of_pericenter": 267.6018,
        "meta_mean_anomaly": 84.5934,
        "meta_ephemeris_type": 0,
        "meta_classification_type": "U",
        "meta_norad_cat_id": 40875,
        "meta_element_set_no": 999,
        "meta_rev_at_epoch": 3789,
        "meta_bstar": 0,
        "meta_mean_motion_dot": -4.5e-07,
        "meta_mean_motion_ddot": 0,
        "tle_line1": "1 40875U 15039B   25357.75963527 -.00000045  00000+0  00000+0 0  9996",
        "tle_line2": "2 40875   0.0639   5.8172 0004241 267.6018  84.5934  1.00271237 37891"
      },
      "geometry": {
        "type": "Point",
        "coordinates": [
          143.26807816929394,
          0.05985475022812519
        ]
      }
    },
    {
      "type": "Feature",
      "properties": {
        "norad_id": 41310,
        "name": "EUTELSAT 9B",
        "group": "eutelsat",
        "lat": 0.03179035862117874,
        "lon": 160.27291206266344,
        "alt_km": 35792.55648234479,
        "timestamp": "2025-12-24T03:53:29.313847+00:00",
        "meta_object_name": "EUTELSAT 9B",
        "meta_object_id": "2016-005A",
        "meta_epoch": "2025-12-23T18:18:37.031904",
        "meta_mean_motion": 1.0027281,
        "meta_eccentricity": 0.0004488,
        "meta_inclination": 0.0221,
        "meta_ra_of_asc_node": 35.9502,
        "meta_arg_of_pericenter": 235.2483,
        "meta_mean_anomaly": 105.0162,
        "meta_ephemeris_type": 0,
        "meta_classification_type": "U",
        "meta_norad_cat_id": 41310,
        "meta_element_set_no": 999,
        "meta_rev_at_epoch": 3635,
        "meta_bstar": 0,
        "meta_mean_motion_dot": 8.3e-07,
        "meta_mean_motion_ddot": 0,
        "tle_line1": "1 41310U 16005A   25357.76292861  .00000083  00000+0  00000+0 0  9993",
        "tle_line2": "2 41310   0.0221  35.9502 0004488 235.2483 105.0162  1.00272810 36354"
      },
      "geometry": {
        "type": "Point",
        "coordinates": [
          160.27291206266344,
          0.03179035862117874
        ]
      }
    },
    {
      "type": "Feature",
      "properties": {
        "norad_id": 41382,
        "name": "EUTELSAT 65 WEST A",
        "group": "eutelsat",
        "lat": 0.06829027008046876,
        "lon": 86.12908180485039,
        "alt_km": 35795.16934953823,
        "timestamp": "2025-12-24T03:53:29.313858+00:00",
        "meta_object_name": "EUTELSAT 65 WEST A",
        "meta_object_id": "2016-014A",
        "meta_epoch": "2025-12-23T17:57:31.551840",
        "meta_mean_motion": 1.0027257,
        "meta_eccentricity": 0.0002219,
        "meta_inclination": 0.0496,
        "meta_ra_of_asc_node": 340.1512,
        "meta_arg_of_pericenter": 295.5238,
        "meta_mean_anomaly": 21.0568,
        "meta_ephemeris_type": 0,
        "meta_classification_type": "U",
        "meta_norad_cat_id": 41382,
        "meta_element_set_no": 999,
        "meta_rev_at_epoch": 3577,
        "meta_bstar": 0,
        "meta_mean_motion_dot": -2.55e-06,
        "meta_mean_motion_ddot": 0,
        "tle_line1": "1 41382U 16014A   25357.74828185 -.00000255  00000+0  00000+0 0  9996",
        "tle_line2": "2 41382   0.0496 340.1512 0002219 295.5238  21.0568  1.00272570 35771"
      },
      "geometry": {
        "type": "Point",
        "coordinates": [
          86.12908180485039,
          0.06829027008046876
        ]
      }
    },
    {
      "type": "Feature",
      "properties": {
        "norad_id": 41589,
        "name": "EUTELSAT 117 WEST B",
        "group": "eutelsat",
        "lat": -0.003834000413996387,
        "lon": 34.29389008413282,
        "alt_km": 35786.79798896918,
        "timestamp": "2025-12-24T03:53:29.313870+00:00",
        "meta_object_name": "EUTELSAT 117 WEST B",
        "meta_object_id": "2016-038B",
        "meta_epoch": "2025-12-23T11:38:38.459904",
        "meta_mean_motion": 1.00269065,
        "meta_eccentricity": 2.68e-05,
        "meta_inclination": 0.0101,
        "meta_ra_of_asc_node": 152.0489,
        "meta_arg_of_pericenter": 153.5082,
        "meta_mean_anomaly": 204.3674,
        "meta_ephemeris_type": 0,
        "meta_classification_type": "U",
        "meta_norad_cat_id": 41589,
        "meta_element_set_no": 999,
        "meta_rev_at_epoch": 3490,
        "meta_bstar": 0,
        "meta_mean_motion_dot": 1e-07,
        "meta_mean_motion_ddot": 0,
        "tle_line1": "1 41589U 16038B   25357.48516736  .00000010  00000+0  00000+0 0  9996",
        "tle_line2": "2 41589   0.0101 152.0489 0000268 153.5082 204.3674  1.00269065 34901"
      },
      "geometry": {
        "type": "Point",
        "coordinates": [
          34.29389008413282,
          -0.003834000413996387
        ]
      }
    },
    {
      "type": "Feature",
      "properties": {
        "norad_id": 42741,
        "name": "EUTELSAT 172B",
        "group": "eutelsat",
        "lat": -0.020357955211528615,
        "lon": -36.69511380774938,
        "alt_km": 35786.810676386005,
        "timestamp": "2025-12-24T03:53:29.313882+00:00",
        "meta_object_name": "EUTELSAT 172B",
        "meta_object_id": "2017-029B",
        "meta_epoch": "2025-12-23T12:43:38.693280",
        "meta_mean_motion": 1.0026951,
        "meta_eccentricity": 1.96e-05,
        "meta_inclination": 0.0266,
        "meta_ra_of_asc_node": 119.5369,
        "meta_arg_of_pericenter": 301.465,
        "meta_mean_anomaly": 34.2329,
        "meta_ephemeris_type": 0,
        "meta_classification_type": "U",
        "meta_norad_cat_id": 42741,
        "meta_element_set_no": 999,
        "meta_rev_at_epoch": 3197,
        "meta_bstar": 0,
        "meta_mean_motion_dot": 1.5e-07,
        "meta_mean_motion_ddot": 0,
        "tle_line1": "1 42741U 17029B   25357.53030895  .00000015  00000+0  00000+0 0  9996",
        "tle_line2": "2 42741   0.0266 119.5369 0000196 301.4650  34.2329  1.00269510 31970"
      },
      "geometry": {
        "type": "Point",
        "coordinates": [
          -36.69511380774938,
          -0.020357955211528615
        ]
      }
    }
  ]
}